[
  "TORO                    \r\n1 60530U 24149BQ  26204.14618811  .00001875  00000+0  16996-3 0  9992\r\n2 60530  97.6768 278.1422 0001467 109.8040 250.3340 14.96535762105332\r\n",
  "TORO3                   \r\n1 68481U 26067BT  26204.10984940  .00000694  00000+0  73640-4 0  9999\r\n2 68481  97.7693 161.9682 0002785 164.1293 196.0014 14.92175402 17083\r\n",
  "SATORO-T3               \r\n1 64589U 25135BP  26204.25294900  .00001612  00000+0  15485-3 0  9998\r\n2 64589  97.7740 318.4196 0004500 195.3729 164.7355 14.94454420 59298\r\n",
  "GEMINI-POLLUX           \r\n1 69000U 26100W   26203.66591248  .00001703  00000+0  17200-3 0  9991\r\n2 69000  97.7280 100.4796 0002363 101.3035 258.8450 14.92343547 11998\r\n",
  "FORMOSAT-2 (ROCSAT 2)   \r\n1 28254U 04018A   26203.87265892 -.00000243  00000+0 -13348-3 0  9996\r\n2 28254  98.8458 170.2593 0001437 179.7824 199.7300 14.01248701133751\r\n",
  "FORMOSAT-3 FM6          \r\n1 29047U 06011A   26204.16294628  .00000225  00000+0  99251-4 0  9990\r\n2 29047  71.9751 237.5989 0048249 177.8985 182.2365 14.31422566 59554\r\n",
  "FORMOSAT-3 FM1          \r\n1 29048U 06011B   26204.15699974  .00000311  00000+0  13151-3 0  9993\r\n2 29048  71.9661 145.9897 0040968 140.1250 220.2910 14.31412030 61921\r\n",
  "FORMOSAT-3 FM5          \r\n1 29049U 06011C   26203.78755581  .00000305  00000+0  12966-3 0  9995\r\n2 29049  72.0202 331.0775 0032907 147.4652 212.8524 14.31428665 57764\r\n",
  "FORMOSAT-3 FM3          \r\n1 29050U 06011D   26204.32577668  .00000833  00000+0  15562-3 0  9997\r\n2 29050  72.0112 234.0073 0044503 221.0922 138.6881 14.67026658 81676\r\n",
  "FORMOSAT-3 FM4          \r\n1 29051U 06011E   26204.30338253  .00000298  00000+0  12445-3 0  9993\r\n2 29051  72.0015 227.4946 0065069  26.2708 334.1705 14.31561843 60431\r\n",
  "FORMOSAT-3 FM2          \r\n1 29052U 06011F   26204.23050774  .00000285  00000+0  12153-3 0  9997\r\n2 29052  72.0339 308.5714 0037152  98.0235 262.5122 14.31643350 57942\r\n",
  "PACE                    \r\n1 40022U 14033N   26204.22118957  .00005122  00000+0  30971-3 0  9990\r\n2 40022  98.1256 211.3156 0008033  96.0545 264.1599 15.11127329658471\r\n",
  "FORMOSAT-5              \r\n1 42920U 17049A   26204.25849148  .00000063  00000+0  27005-4 0  9999\r\n2 42920  98.2240 278.7646 0010850 338.2719  21.8015 14.50894220471904\r\n",
  "FORMOSAT 7-3            \r\n1 44343U 19036E   26203.93484255  .00004245  00000+0  23348-3 0  9997\r\n2 44343  23.9994 292.4608 0000692  27.6632 332.3909 15.10036640388655\r\n",
  "FORMOSAT 7-1            \r\n1 44349U 19036L   26204.18441225  .00002200  00000+0  16247-3 0  9990\r\n2 44349  23.9968 149.6823 0000542 215.2553 144.7912 14.96635294390054\r\n",
  "FORMOSAT 7-4            \r\n1 44350U 19036M   26204.14034491  .00002065  00000+0  15091-3 0  9996\r\n2 44350  23.9964 212.0914 0000796 239.1460 120.8963 14.96631224389464\r\n",
  "FORMOSAT 7-2            \r\n1 44351U 19036N   26204.29605652  .00002044  00000+0  14909-3 0  9990\r\n2 44351  23.9976 265.3596 0000276 224.6275 135.4203 14.96631896389005\r\n",
  "FORMOSAT 7-6            \r\n1 44353U 19036Q   26204.02893030  .00002279  00000+0  16917-3 0  9993\r\n2 44353  23.9979  87.9648 0001238 148.8974 211.1600 14.96636692387198\r\n",
  "FORMOSAT 7-5            \r\n1 44358U 19036V   26204.20650142  .00002379  00000+0  17790-3 0  9994\r\n2 44358  23.9996  25.5241 0000018 169.3132 190.7370 14.96617955387757\r\n",
  "FORMOSAT-7R (TRITON)    \r\n1 58017U 23155B   26204.20645632  .00001109  00000+0  11721-3 0  9994\r\n2 58017  97.8346 285.3480 0001079  48.1986 311.9325 14.91210885151597\r\n",
  "NIGHTJAR                \r\n1 60535U 24149BV  26204.16917193  .00003592  00000+0  29965-3 0  9992\r\n2 60535  97.6852 280.3732 0002826  80.7230 279.4312 14.99214174148262\r\n",
  "IRIS-F3                 \r\n1 62619U 25009L   26204.15635681  .00011909  00000+0  44504-3 0  9998\r\n2 62619  97.4036 284.7247 0006361 180.7775 179.3455 15.27488130 84319\r\n",
  "IRIS-F2                 \r\n1 62684U 25009CD  26204.17349077  .00015949  00000+0  59385-3 0  9994\r\n2 62684  97.3876 283.5988 0005082 204.1288 155.9714 15.27545763141958\r\n",
  "FORMOSAT-8A             \r\n1 66666U 25276A   26204.14381602  .00001437  00000+0  11791-3 0  9997\r\n2 66666  97.6546 277.8448 0006574 105.8648 254.3301 15.00771443 35450\r\n",
  "LILIUM-2                \r\n1 66679U 25276P   26204.16369772  .00001740  00000+0  88575-4 0  9999\r\n2 66679  97.4137 276.4866 0004727 230.7989 129.2826 15.18121786 35855\r\n",
  "BLACK KITE-1            \r\n1 66741U 25276CD  26204.16806301  .00008066  00000+0  36596-3 0  9996\r\n2 66741  97.4228 277.3656 0004933 206.8277 153.2704 15.21064289 33191\r\n",
  "T.MICROSAT-1            \r\n1 66766U 25276DE  26204.19398655  .00005240  00000+0  23829-3 0  9990\r\n2 66766  97.4143 277.3633 0002239  93.7273 266.4218 15.21157722 35919\r\n",
  "LILIUM-3                \r\n1 66770U 25276DJ  26204.17820017  .00002387  00000+0  11505-3 0  9992\r\n2 66770  97.4228 277.3418 0003431 112.9351 247.2246 15.19673041 35894\r\n",
  "T.MICROSAT-2            \r\n1 68433U 26067T   26204.19425736  .00004663  00000+0  23457-3 0  9998\r\n2 68433  97.4582 162.0271 0003972 311.7919  48.2975 15.17704717 17397\r\n",
  "PARUS-6U1               \r\n1 68456U 26067AS  26203.85727895  .00005317  00000+0  26591-3 0  9995\r\n2 68456  97.4569 161.6849 0003989 316.4031  43.6887 15.17851703 17342\r\n",
  "BLACK KITE-2            \r\n1 68474U 26067BL  26203.14036026  .00001868  00000+0  18644-3 0  9993\r\n2 68474  97.7567 160.9179 0003634 108.8593 251.3021 14.92722319 16949\r\n",
  "PEARL-1B                \r\n1 68980U 26100A   26204.15819697  .00001726  00000+0  18149-3 0  9991\r\n2 68980  97.7321 100.7914 0008278  38.2936 321.8869 14.90689000 12041\r\n",
  "PEARL-1A                \r\n1 68990U 26100L   26203.53186435  .00001346  00000+0  14147-3 0  9992\r\n2 68990  97.7269 100.1823 0006697  56.2336 303.9520 14.91072880 11961\r\n"
]